ONEWEB-0346             
1 49212U 21083AC  23257.79629611  .00000203  00000+0  48152-3 0  9999
2 49212  87.9298 175.5913 0001432  71.1721 288.9566 13.18686760 97346
ONEWEB-0348             
1 49213U 21083AD  23257.83773352  .00000087  00000+0  18261-3 0  9995
2 49213  87.9172 114.8185 0001166  56.8131 303.3114 13.20769877103976
ONEWEB-0350             
1 49214U 21083AE  23258.11802321  .00000200  00000+0  51166-3 0  9995
2 49214  87.9020 160.3967 0001629  59.9710 300.1581 13.13473152100165
ONEWEB-0351             
1 49215U 21083AF  23257.90716873  .00000003  00000+0 -24679-4 0  9990
2 49215  87.9177 114.8038 0002199  79.4495 280.6886 13.20769410103944
ONEWEB-0352             
1 49216U 21083AG  23257.79428152  .00000663  00000+0  17800-2 0  9995
2 49216  87.9077 160.4569 0002218  74.8186 285.3188 13.13471838100218
ONEWEB-0354             
1 49217U 21083AH  23257.85667661  .00000082  00000+0  17045-3 0  9990
2 49217  87.9174 114.7967 0001858  68.3000 291.8331 13.20773053105289
ONEWEB-0355             
1 49218U 21083AJ  23258.13072010 -.00000011  00000+0 -65011-4 0  9992
2 49218  87.9079 160.3903 0002011  69.5936 290.5409 13.13470225100132
ONEWEB-0357             
1 49219U 21083AK  23257.85247439  .00000117  00000+0  25586-3 0  9997
2 49219  87.9177 114.8167 0001726  77.1952 282.9374 13.20771449103974
